{
  "type": "FeatureCollection",
  "features": [
    {
      "type": "Feature",
      "properties": {
        "norad_id": 66795,
        "name": "STARLINK-36047",
        "group": "last-30-days",
        "lat": 16.42115599110849,
        "lon": -93.32435164433171,
        "alt_km": 308.72033046060733,
        "timestamp": "2025-12-13T08:49:14.457532+00:00",
        "meta_object_name": "STARLINK-36047",
        "meta_object_id": "2025-278E",
        "meta_epoch": "2025-12-12T19:07:26.321952",
        "meta_mean_motion": 15.86958556,
        "meta_eccentricity": 0.00028148,
        "meta_inclination": 42.9975,
        "meta_ra_of_asc_node": 251.7609,
        "meta_arg_of_pericenter": 270.7035,
        "meta_mean_anomaly": 89.3516,
        "meta_ephemeris_type": 0,
        "meta_classification_type": "U",
        "meta_norad_cat_id": 66795,
        "meta_element_set_no": 999,
        "meta_rev_at_epoch": 184,
        "meta_bstar": 0.00014480858,
        "meta_mean_motion_dot": 0.00038253,
        "meta_mean_motion_ddot": 0,
        "tle_line1": "1 66795U 25278E   25346.79683243  .00038253  00000+0  14481-3 0  9990",
        "tle_line2": "2 66795  42.9975 251.7609 0002814 270.7035  89.3516 15.86958556  1843"
      },
      "geometry": {
        "type": "Point",
        "coordinates": [
          -93.32435164433171,
          16.42115599110849
        ]
      }
    },
    {
      "type": "Feature",
      "properties": {
        "norad_id": 66796,
        "name": "STARLINK-35964",
        "group": "last-30-days",
        "lat": 6.505095773345051,
        "lon": -105.61103434698724,
        "alt_km": 274.0533792965107,
        "timestamp": "2025-12-13T08:49:14.457542+00:00",
        "meta_object_name": "STARLINK-35964",
        "meta_object_id": "2025-278F",
        "meta_epoch": "2025-12-12T17:48:16.146720",
        "meta_mean_motion": 16.00958902,
        "meta_eccentricity": 0.00025026,
        "meta_inclination": 42.9952,
        "meta_ra_of_asc_node": 251.301,
        "meta_arg_of_pericenter": 244.5727,
        "meta_mean_anomaly": 115.4893,
        "meta_ephemeris_type": 0,
        "meta_classification_type": "U",
        "meta_norad_cat_id": 66796,
        "meta_element_set_no": 999,
        "meta_rev_at_epoch": 184,
        "meta_bstar": -0.0012683625,
        "meta_mean_motion_dot": -0.00717203,
        "meta_mean_motion_ddot": 0.00018122839,
        "tle_line1": "1 66796U 25278F   25346.74185355 -.00717203  18123-3 -12684-2 0  9999",
        "tle_line2": "2 66796  42.9952 251.3010 0002502 244.5727 115.4893 16.00958902  1843"
      },
      "geometry": {
        "type": "Point",
        "coordinates": [
          -105.61103434698724,
          6.505095773345051
        ]
      }
    },
    {
      "type": "Feature",
      "properties": {
        "norad_id": 66797,
        "name": "STARLINK-36099",
        "group": "last-30-days",
        "lat": 19.929797025841754,
        "lon": -88.87753644170208,
        "alt_km": 307.8893083610965,
        "timestamp": "2025-12-13T08:49:14.457552+00:00",
        "meta_object_name": "STARLINK-36099",
        "meta_object_id": "2025-278G",
        "meta_epoch": "2025-12-12T19:06:02.667744",
        "meta_mean_motion": 15.87000336,
        "meta_eccentricity": 0.00027478,
        "meta_inclination": 42.9977,
        "meta_ra_of_asc_node": 251.7522,
        "meta_arg_of_pericenter": 292.2305,
        "meta_mean_anomaly": 67.8277,
        "meta_ephemeris_type": 0,
        "meta_classification_type": "U",
        "meta_norad_cat_id": 66797,
        "meta_element_set_no": 999,
        "meta_rev_at_epoch": 184,
        "meta_bstar": -0.00027305389,
        "meta_mean_motion_dot": -0.00073047,
        "meta_mean_motion_ddot": 0,
        "tle_line1": "1 66797U 25278G   25346.79586421 -.00073047  00000+0 -27305-3 0  9993",
        "tle_line2": "2 66797  42.9977 251.7522 0002747 292.2305  67.8277 15.87000336  1845"
      },
      "geometry": {
        "type": "Point",
        "coordinates": [
          -88.87753644170208,
          19.929797025841754
        ]
      }
    },
    {
      "type": "Feature",
      "properties": {
        "norad_id": 66798,
        "name": "STARLINK-36041",
        "group": "last-30-days",
        "lat": 21.1508503858428,
        "lon": -87.24956464451986,
        "alt_km": 309.58166421690566,
        "timestamp": "2025-12-13T08:49:14.457564+00:00",
        "meta_object_name": "STARLINK-36041",
        "meta_object_id": "2025-278H",
        "meta_epoch": "2025-12-12T19:05:30.895872",
        "meta_mean_motion": 15.87175725,
        "meta_eccentricity": 0.00021186,
        "meta_inclination": 42.9977,
        "meta_ra_of_asc_node": 251.7496,
        "meta_arg_of_pericenter": 249.7738,
        "meta_mean_anomaly": 110.2908,
        "meta_ephemeris_type": 0,
        "meta_classification_type": "U",
        "meta_norad_cat_id": 66798,
        "meta_element_set_no": 999,
        "meta_rev_at_epoch": 184,
        "meta_bstar": -0.0018647028,
        "meta_mean_motion_dot": -0.00477657,
        "meta_mean_motion_ddot": 0,
        "tle_line1": "1 66798U 25278H   25346.79549648 -.00477657  00000+0 -18647-2 0  9997",
        "tle_line2": "2 66798  42.9977 251.7496 0002118 249.7738 110.2908 15.87175725  1844"
      },
      "geometry": {
        "type": "Point",
        "coordinates": [
          -87.24956464451986,
          21.1508503858428
        ]
      }
    },
    {
      "type": "Feature",
      "properties": {
        "norad_id": 66799,
        "name": "STARLINK-36044",
        "group": "last-30-days",
        "lat": 23.759048798001494,
        "lon": -83.59935553567024,
        "alt_km": 309.8283569887708,
        "timestamp": "2025-12-13T08:49:14.457576+00:00",
        "meta_object_name": "STARLINK-36044",
        "meta_object_id": "2025-278J",
        "meta_epoch": "2025-12-12T19:04:27.629472",
        "meta_mean_motion": 15.88033118,
        "meta_eccentricity": 0.00022124,
        "meta_inclination": 42.9968,
        "meta_ra_of_asc_node": 251.744,
        "meta_arg_of_pericenter": 305.1365,
        "meta_mean_anomaly": 54.9301,
        "meta_ephemeris_type": 0,
        "meta_classification_type": "U",
        "meta_norad_cat_id": 66799,
        "meta_element_set_no": 999,
        "meta_rev_at_epoch": 184,
        "meta_bstar": -0.0071569994,
        "meta_mean_motion_dot": -0.01746316,
        "meta_mean_motion_ddot": 0,
        "tle_line1": "1 66799U 25278J   25346.79476423 -.01746316  00000+0 -71570-2 0  9994",
        "tle_line2": "2 66799  42.9968 251.7440 0002212 305.1365  54.9301 15.88033118  1843"
      },
      "geometry": {
        "type": "Point",
        "coordinates": [
          -83.59935553567024,
          23.759048798001494
        ]
      }
    },
    {
      "type": "Feature",
      "properties": {
        "norad_id": 66800,
        "name": "STARLINK-35996",
        "group": "last-30-days",
        "lat": 26.141551240066413,
        "lon": -80.01860888222687,
        "alt_km": 312.9466780482444,
        "timestamp": "2025-12-13T08:49:14.457587+00:00",
        "meta_object_name": "STARLINK-35996",
        "meta_object_id": "2025-278K",
        "meta_epoch": "2025-12-12T19:03:11.017728",
        "meta_mean_motion": 15.87350216,
        "meta_eccentricity": 0.00034282,
        "meta_inclination": 42.9971,
        "meta_ra_of_asc_node": 251.7352,
        "meta_arg_of_pericenter": 246.7997,
        "meta_mean_anomaly": 113.2516,
        "meta_ephemeris_type": 0,
        "meta_classification_type": "U",
        "meta_norad_cat_id": 66800,
        "meta_element_set_no": 999,
        "meta_rev_at_epoch": 184,
        "meta_bstar": -0.0060712945,
        "meta_mean_motion_dot": -0.01439617,
        "meta_mean_motion_ddot": 0,
        "tle_line1": "1 66800U 25278K   25346.79387752 -.01439617  00000+0 -60713-2 0  9993",
        "tle_line2": "2 66800  42.9971 251.7352 0003428 246.7997 113.2516 15.87350216  1840"
      },
      "geometry": {
        "type": "Point",
        "coordinates": [
          -80.01860888222687,
          26.141551240066413
        ]
      }
    },
    {
      "type": "Feature",
      "properties": {
        "norad_id": 66801,
        "name": "STARLINK-36080",
        "group": "last-30-days",
        "lat": 32.801880241757715,
        "lon": -68.0684780009085,
        "alt_km": 310.6577731147063,
        "timestamp": "2025-12-13T08:49:14.457597+00:00",
        "meta_object_name": "STARLINK-36080",
        "meta_object_id": "2025-278L",
        "meta_epoch": "2025-12-12T19:00:18.652320",
        "meta_mean_motion": 15.88180852,
        "meta_eccentricity": 0.00027531,
        "meta_inclination": 42.997,
        "meta_ra_of_asc_node": 251.7193,
        "meta_arg_of_pericenter": 279.5628,
        "meta_mean_anomaly": 80.4935,
        "meta_ephemeris_type": 0,
        "meta_classification_type": "U",
        "meta_norad_cat_id": 66801,
        "meta_element_set_no": 999,
        "meta_rev_at_epoch": 184,
        "meta_bstar": -0.0083472947,
        "meta_mean_motion_dot": -0.02053142,
        "meta_mean_motion_ddot": 0,
        "tle_line1": "1 66801U 25278L   25346.79188255 -.02053142  00000+0 -83473-2 0  9995",
        "tle_line2": "2 66801  42.9970 251.7193 0002753 279.5628  80.4935 15.88180852  1846"
      },
      "geometry": {
        "type": "Point",
        "coordinates": [
          -68.0684780009085,
          32.801880241757715
        ]
      }
    }
  ]
}